BEIDOU-2 G3             
1 36590U 10024A   26179.60621740 -.00000128  00000+0  00000+0 0  9991
2 36590   4.5426  61.4716 0008063 356.5696 156.5756  1.00271243 58882
BADR-5                  
1 36592U 10025A   26179.59647617  .00000165  00000+0  00000+0 0  9993
2 36592   0.0504 131.0927 0004059  56.4811 334.3490  1.00268295 53335
COMS 1                  
1 36744U 10032A   26179.23980426  .00000015  00000+0  00000+0 0  9993
2 36744   4.8326  75.2282 0011911  13.1014 303.7252  0.99167386 51195
ARABSAT-5A              
1 36745U 10032B   26179.59647617  .00000165  00000+0  00000+0 0  9991
2 36745   0.0743  54.4763 0005670  59.4665  47.9621  1.00272691 58766
ECHOSTAR 15             
1 36792U 10034A   26179.56686769  .00000011  00000+0  00000+0 0  9993
2 36792   0.0127  35.2580 0002220  49.3504 277.3152  1.00272716 58436
BEIDOU-2 IGSO-1         
1 36828U 10036A   26177.90040617 -.00000057  00000+0  00000+0 0  9998
2 36828  54.3050 162.8716 0059014 225.3100 318.5305  1.00269877 58197
NILESAT 201             
1 36830U 10037A   26179.44606308 -.00000046  00000+0  00000+0 0  9996
2 36830   0.0376 123.6717 0005269 358.2456 308.2077  1.00271580 58486
RASCOM-QAF 1R           
1 36831U 10037B   26179.30582615  .00000030  00000+0  00000+0 0  9998
2 36831   0.0256  75.4302 0006563  15.1262 298.8378  1.00272353 58410
AEHF-1 (USA 214)        
1 36868U 10039A   26178.93931381  .00000150  00000+0  00000+0 0  9999
2 36868   8.2469  67.9006 0003018  37.6660 178.6374  1.00243306 53766
XM-5                    
1 37185U 10053A   26179.46641815 -.00000012  00000+0  00000+0 0  9995
2 37185   0.0675 269.7433 0002494 282.8518 136.6849  1.00272363 57598
BSAT-3B                 
1 37207U 10056B   26179.61219741 -.00000339  00000+0  00000+0 0  9991
2 37207   0.0702 241.2607 0002113 283.7748  81.9076  1.00271548 52217
BEIDOU-2 G4             
1 37210U 10057A   26179.67538150 -.00000104  00000+0  00000+0 0  9990
2 37210   3.6750  68.8850 0004784 191.2188  59.7825  1.00271554 57401
SKYTERRA 1              
1 37218U 10061A   26178.59155802 -.00000111  00000+0  00000+0 0  9990
2 37218   5.1467  50.8435 0002416  26.0816 310.4261  1.00273002 57292
HYLAS 1                 
1 37237U 10065A   26179.30799282  .00000095  00000+0  00000+0 0  9991
2 37237   5.6708  72.8873 0001122 337.3385 350.8544  1.00271889  6992
INTELSAT 17 (IS-17)     
1 37238U 10065B   26179.44467766  .00000012  00000+0  00000+0 0  9995
2 37238   0.0172  88.5864 0002406 356.1387  57.8842  1.00262040 53365
BEIDOU-2 IGSO-2         
1 37256U 10068A   26179.65885809 -.00000195  00000+0  00000+0 0  9996
2 37256  47.5265 271.6882 0056382 213.7241 136.7100  1.00280142 56908
EUTELSAT KA-SAT 9A      
1 37258U 10069A   26179.52092641  .00000073  00000+0  00000+0 0  9993
2 37258   0.0599  11.5140 0003702 122.9471 338.6835  1.00270492 44122
HISPASAT 30W-5          
1 37264U 10070A   26179.29042338 -.00000204  00000+0  00000+0 0  9991
2 37264   0.0371 118.8468 0005810 351.4715 240.6208  1.00272795 53295
KOREASAT 6              
1 37265U 10070B   26179.51294488  .00000000  00000+0  00000+0 0  9995
2 37265   0.0291  33.9202 0002732  75.1961 152.0335  1.00270764 56882
BEIDOU-2 IGSO-3         
1 37384U 11013A   26176.54644699 -.00000187  00000+0  00000+0 0  9995
2 37384  62.4191  40.0714 0035057 184.1159 353.6243  1.00266124 55744
INTELSAT 28 (IS-28)     
1 37392U 11016A   26179.39286275 -.00000215  00000+0  00000+0 0  9997
2 37392   1.8344  82.4959 0004042  13.9165 289.7735  1.00271205 53397
YAHSAT 1A               
1 37393U 11016B   26179.24439762  .00000000  00000+0  00000+0 0  9994
2 37393   0.0230  26.6356 0003367  73.3011 316.8830  1.00262501 42512
SBIRS GEO-1 (USA 230)   
1 37481U 11019A   26179.24422428  .00000107  00000+0  00000+0 0  9994
2 37481   4.5599  53.1173 0001893  36.7364 326.2076  1.00272103 55515
TELSTAR 14R             
1 37602U 11021A   26179.57796108 -.00000268  00000+0  00000+0 0  9996
2 37602   0.0469  80.8753 0002394 351.8223 349.0501  1.00271629 55945
GSAT-8                  
1 37605U 11022A   26179.53006424  .00000094  00000+0  00000+0 0  9997
2 37605   2.1595  81.6969 0001633 181.7322 259.0991  1.00273710 53331
ST-2                    
1 37606U 11022B   26179.56780966  .00000000  00000+0  00000+0 0  9998
2 37606   0.0247  28.7934 0001810  78.7178 101.5816  1.00271027 55392
ZHONGXING-10            
1 37677U 11026A   26179.60734406 -.00000178  00000+0  00000+0 0  9990
2 37677   1.0765  84.0893 0003815   7.8511 128.9308  1.00272749 55117
SES-3                   
1 37748U 11035A   26179.56998771 -.00000092  00000+0  00000+0 0  9996
2 37748   1.3554  82.9792 0002501   3.0823 292.7946  1.00272548 54704
KAZSAT-2                
1 37749U 11035B   26179.42405856 -.00000186  00000+0  00000+0 0  9993
2 37749   0.0002 277.8221 0001908 233.3195   4.5287  1.00270287 53514
BEIDOU-2 IGSO-4         
1 37763U 11038A   26178.93983384  .00000020  00000+0  00000+0 0  9990
2 37763  54.6032 165.5768 0159683 231.4655 311.1625  1.00283688 54750
ASTRA 1N                
1 37775U 11041A   26179.59422282  .00000131  00000+0  00000+0 0  9998
2 37775   0.0836  39.6834 0005959  56.7039  53.3951  1.00271255 44646
BSAT-3C (JCSAT-110R)    
1 37776U 11041B   26179.61219741 -.00000339  00000+0  00000+0 0  9997
2 37776   0.0186 333.9735 0000494 169.5616 103.5182  1.00271193 50583
