OBJECT_NAME,OBJECT_ID,EPOCH,MEAN_MOTION,ECCENTRICITY,INCLINATION,RA_OF_ASC_NODE,ARG_OF_PERICENTER,MEAN_ANOMALY,EPHEMERIS_TYPE,CLASSIFICATION_TYPE,NORAD_CAT_ID,ELEMENT_SET_NO,REV_AT_EPOCH,BSTAR,MEAN_MOTION_DOT,MEAN_MOTION_DDOT
BEIDOU-2 G3,2010-024A,2026-06-28T14:32:57.183360,1.00271243,.00080633,4.5426,61.4716,356.5696,156.5756,0,U,36590,999,5888,0,-.128E-5,0
BADR-5,2010-025A,2026-06-28T14:18:55.541088,1.00268295,.00040592,0.0504,131.0927,56.4811,334.3490,0,U,36592,999,5333,0,.165E-5,0
COMS 1,2010-032A,2026-06-28T05:45:19.088064,0.99167386,.00119116,4.8326,75.2282,13.1014,303.7252,0,U,36744,999,5119,0,.15E-6,0
ARABSAT-5A,2010-032B,2026-06-28T14:18:55.541088,1.00272691,.00056703,0.0743,54.4763,59.4665,47.9621,0,U,36745,999,5876,0,.165E-5,0
ECHOSTAR 15,2010-034A,2026-06-28T13:36:17.368416,1.00272716,.00022206,0.0127,35.2580,49.3504,277.3152,0,U,36792,999,5843,0,.11E-6,0
BEIDOU-2 IGSO-1,2010-036A,2026-06-26T21:36:35.093088,1.00269877,.0059014,54.3050,162.8716,225.3100,318.5305,0,U,36828,999,5819,0,-.57E-6,0
NILESAT 201,2010-037A,2026-06-28T10:42:19.850112,1.00271580,.00052697,0.0376,123.6717,358.2456,308.2077,0,U,36830,999,5848,0,-.46E-6,0
RASCOM-QAF 1R,2010-037B,2026-06-28T07:20:23.379360,1.00272353,.00065632,0.0256,75.4302,15.1262,298.8378,0,U,36831,999,5841,0,.3E-6,0
AEHF-1 (USA 214),2010-039A,2026-06-27T22:32:36.713184,1.00243306,.00030181,8.2469,67.9006,37.6660,178.6374,0,U,36868,999,5376,0,.15E-5,0
XM-5,2010-053A,2026-06-28T11:11:38.528160,1.00272363,.00024948,0.0675,269.7433,282.8518,136.6849,0,U,37185,999,5759,0,-.12E-6,0
BSAT-3B,2010-056B,2026-06-28T14:41:33.856224,1.00271548,.00021137,0.0702,241.2607,283.7748,81.9076,0,U,37207,999,5221,0,-.339E-5,0
BEIDOU-2 G4,2010-057A,2026-06-28T16:12:32.961600,1.00271554,.00047845,3.6750,68.8850,191.2188,59.7825,0,U,37210,999,5740,0,-.104E-5,0
SKYTERRA 1,2010-061A,2026-06-27T14:11:50.612928,1.00273002,.00024167,5.1467,50.8435,26.0816,310.4261,0,U,37218,999,5729,0,-.111E-5,0
HYLAS 1,2010-065A,2026-06-28T07:23:30.579648,1.00271889,.00011228,5.6708,72.8873,337.3385,350.8544,0,U,37237,999,699,0,.95E-6,0
INTELSAT 17 (IS-17),2010-065B,2026-06-28T10:40:20.149824,1.00262040,.00024068,0.0172,88.5864,356.1387,57.8842,0,U,37238,999,5336,0,.12E-6,0
BEIDOU-2 IGSO-2,2010-068A,2026-06-28T15:48:45.338976,1.00280142,.00563826,47.5265,271.6882,213.7241,136.7100,0,U,37256,999,5690,0,-.195E-5,0
EUTELSAT KA-SAT 9A,2010-069A,2026-06-28T12:30:08.041824,1.00270492,.00037024,0.0599,11.5140,122.9471,338.6835,0,U,37258,999,4412,0,.73E-6,0
HISPASAT 30W-5,2010-070A,2026-06-28T06:58:12.580032,1.00272795,.000581,0.0371,118.8468,351.4715,240.6208,0,U,37264,999,5329,0,-.204E-5,0
KOREASAT 6,2010-070B,2026-06-28T12:18:38.437632,1.00270764,.00027324,0.0291,33.9202,75.1961,152.0335,0,U,37265,999,5688,0,0,0
BEIDOU-2 IGSO-3,2011-013A,2026-06-25T13:06:53.019936,1.00266124,.00350576,62.4191,40.0714,184.1159,353.6243,0,U,37384,999,5574,0,-.187E-5,0
INTELSAT 28 (IS-28),2011-016A,2026-06-28T09:25:43.341600,1.00271205,.00040428,1.8344,82.4959,13.9165,289.7735,0,U,37392,999,5339,0,-.215E-5,0
YAHSAT 1A,2011-016B,2026-06-28T05:51:55.954368,1.00262501,.00033679,0.0230,26.6356,73.3011,316.8830,0,U,37393,999,4251,0,0,0
SBIRS GEO-1 (USA 230),2011-019A,2026-06-28T05:51:40.977792,1.00272103,.00018933,4.5599,53.1173,36.7364,326.2076,0,U,37481,999,5551,0,.107E-5,0
TELSTAR 14R,2011-021A,2026-06-28T13:52:15.837312,1.00271629,.00023947,0.0469,80.8753,351.8223,349.0501,0,U,37602,999,5594,0,-.268E-5,0
GSAT-8,2011-022A,2026-06-28T12:43:17.550336,1.00273710,.00016339,2.1595,81.6969,181.7322,259.0991,0,U,37605,999,5333,0,.94E-6,0
ST-2,2011-022B,2026-06-28T13:37:38.754624,1.00271027,.00018102,0.0247,28.7934,78.7178,101.5816,0,U,37606,999,5539,0,0,0
ZHONGXING-10,2011-026A,2026-06-28T14:34:34.526784,1.00272749,.00038157,1.0765,84.0893,7.8511,128.9308,0,U,37677,999,5511,0,-.178E-5,0
SES-3,2011-035A,2026-06-28T13:40:46.938144,1.00272548,.00025013,1.3554,82.9792,3.0823,292.7946,0,U,37748,999,5470,0,-.92E-6,0
KAZSAT-2,2011-035B,2026-06-28T10:10:38.659584,1.00270287,.00019083,0.0002,277.8221,233.3195,4.5287,0,U,37749,999,5351,0,-.186E-5,0
BEIDOU-2 IGSO-4,2011-038A,2026-06-27T22:33:21.643776,1.00283688,.01596832,54.6032,165.5768,231.4655,311.1625,0,U,37763,999,5475,0,.2E-6,0
ASTRA 1N,2011-041A,2026-06-28T14:15:40.851648,1.00271255,.00059594,0.0836,39.6834,56.7039,53.3951,0,U,37775,999,4464,0,.131E-5,0
BSAT-3C (JCSAT-110R),2011-041B,2026-06-28T14:41:33.856224,1.00271193,.00004949,0.0186,333.9735,169.5616,103.5182,0,U,37776,999,5058,0,-.339E-5,0
